AQUA,1 27424U 02022A   26086.28208474  .00000954  00000+0  19999-3 0  9999,2 27424  98.4203  53.9714 0001067 117.7280 347.8109 14.62015696271301,-46.31860428634474,48.44589993993671,705298.142918718
CZ-4B R/B,1 27432U 02024C   26086.11760999  .00000041  00000+0  44063-4 0  9995,2 27432  98.8802 139.4337 0049586 334.6419  77.4282 14.14550693231708,-24.747047029017377,129.3050091639281,817253.0784269745
MIDORI II (ADEOS-II),1 27597U 02056A   26086.16480357  .00000315  00000+0  14148-3 0  9998,2 27597  98.7799  44.7665 0000834  23.0291 337.0927 14.29297843212796,61.064135329996596,14.35338387130348,804016.6415057996
H-2A R/B,1 27601U 02056E   26086.31295801  .00000292  00000+0  11660-3 0  9999,2 27601  98.3232  46.0108 0071330 108.7279  52.4323 14.33772025216633,-5.679585802379611,-149.25620183867176,771607.8098556934
CZ-4B R/B,1 28059U 03049C   26086.26309239  .00000345  00000+0  90653-4 0  9994,2 28059  98.6892  81.8596 0048189 176.7003 183.4520 14.55035410189154,-57.525647988657,81.30871307188232,751349.4780324097
CZ-2C R/B,1 28222U 04012C   26086.18636000  .00054230  00000+0  51491-3 0  9995,2 28222  97.7188 153.1612 0013239 238.9845 121.0115 15.66620770207015,59.99217504065946,-27.61287596085484,382982.09640119283
SL-16 R/B,1 28353U 04021B   26086.27661024  .00000134  00000+0  94458-4 0  9999,2 28353  71.0006 195.5852 0004883 348.4208  11.6801 14.14594226125322,-13.682826956385162,5.199629226385919,852034.9867983279
CZ-4B R/B,1 28415U 04035C   26086.05321895  .00008669  00000+0  30304-3 0  9998,2 28415  97.3476 120.0889 0029966 266.6078  93.1734 15.29359100182567,81.69630534419774,44.43393364068047,511744.7143600074
CZ-2C R/B,1 28480U 04046B   26086.29564031  .00000126  00000+0  61233-4 0  9995,2 28480  98.1976   0.1827 0140590 102.7015 258.9924 14.26998146111010,69.24224300427058,-172.03198921070603,713550.8059463876
ARIANE 5 R/B,1 28499U 04049H   26086.08087424  .00000801  00000+0  95006-4 0  9996,2 28499  98.2654 255.1922 0082952 295.0835  64.1786 14.85296251148370,-41.571734070440584,53.648892597614584,610076.397074526
CZ-2D R/B,1 28738U 05024B   26086.01821876  .00049716  00000+0  57530-3 0  9993,2 28738  97.3584 101.8194 0002751 348.3789  11.7405 15.61707844142487,-21.922616116487802,90.66673464125877,389167.4125212836
ALOS (DAICHI),1 28931U 06002A   26086.27066168  .00001331  00000+0  23091-3 0  9994,2 28931  98.1246  42.1417 0000825 104.7799 255.3498 14.69861849 76067,-80.42643385405107,85.09059768268601,690214.7092356617
